#aV2010  5 15  0  0   .00000000      96 DD+AD WGS84 FIT  NGA
## 1583 518400.00000000   900.00000000 55331  .0000000000000
+   31     1  2  3  4  5  6  7  8  9 10 11 12 13 14 15 16 17
+         18 19 20 21 22 23 24 26 27 28 29 30 31 32  0  0  0
+          0  0  0  0  0  0  0  0  0  0  0  0  0  0  0  0  0
+          0  0  0  0  0  0  0  0  0  0  0  0  0  0  0  0  0
+          0  0  0  0  0  0  0  0  0  0  0  0  0  0  0  0  0
++         0  0  0  0  0  0  0  0  0  0  0  0  0  0  0  0  0
++         0  0  0  0  0  0  0  0  0  0  0  0  0  0  0  0  0
++         0  0  0  0  0  0  0  0  0  0  0  0  0  0  0  0  0
++         0  0  0  0  0  0  0  0  0  0  0  0  0  0  0  0  0
++         0  0  0  0  0  0  0  0  0  0  0  0  0  0  0  0  0
%c cc cc ccc ccc cccc cccc cccc cccc ccccc ccccc ccccc ccccc
%c cc cc ccc ccc cccc cccc cccc cccc ccccc ccccc ccccc ccccc
%f  0.0000000  0.000000000  0.00000000000  0.000000000000000
%f  0.0000000  0.000000000  0.00000000000  0.000000000000000
%i    0    0    0    0      0      0      0      0         0
%i    0    0    0    0      0      0      0      0         0
/*      NGA, ST. LOUIS,MO.                                  
/*   EPHEMERIS COMPUTED FROM  3 DAYS OF DATA                
/* CCCCCCCCCCCCCCCCCCCCCCCCCCCCCCCCCCCCCCCCCCCCCCCCCCCCCCCCC
/* CCCCCCCCCCCCCCCCCCCCCCCCCCCCCCCCCCCCCCCCCCCCCCCCCCCCCCCCC
*  2010  5 15  2 30   .00000000                                                 
P  1  16388.514553  10912.446043 -18027.106486   -119.995895                    
V  1 -22320.484233   3658.288984 -18049.234826      -.040694                    
P  2 -17039.521307   2200.309341 -20164.861135    255.727834                    
V  2   9055.838484 -24141.977595 -10756.009073       .034250                    
P  3  20258.547378   3725.078207  16587.020711    555.088183                    
V  3  12943.582895  17603.360484 -18996.411217       .050591                    
P  4 -10919.513683 -12615.159199 -20767.886470     82.084092                    
V  4  11883.717450 -23306.719601   8333.143545       .083525                    
P  5 -26516.580142   2036.497730   -832.371053     -3.111211                    
V  5    750.470850  -2898.265860 -31632.218719      -.010530                    
P  6  20571.685401   8179.943635  14960.763515    639.533706                    
V  6   9651.835697  16204.121845 -22259.933071      -.111725                    
P  7   5017.431946 -24595.845438   8407.647691      -.470966                    
V  7   6686.906311  -8728.055094 -29643.859411      -.003579                    
P  8  -3556.045624 -18551.833835  18423.205318      5.371425                    
V  8  12414.341942 -20053.664772 -18292.224215       .001113                    
P  9 -15151.661590  19276.572319   9607.907723      6.587496                    
V  9   3097.759978 -12783.940455  28957.692453       .022103                    
P 10 -24367.142568  -5227.606245  -9848.738325    -42.592806                    
V 10  11936.587069  -3279.870142 -27983.928099      -.008504                    
P 11  10788.543492 -22755.522149   7594.446929    -62.626436                    
V 11   2976.834727  10995.554998  28130.867650      -.023767                    
P 12 -18166.955599  11934.350090 -15107.605647   -115.310096                    
V 12 -19405.948998   -265.688453  23198.998033       .042621                    
P 13  -1279.621223 -21553.298564 -15590.318378    304.428603                    
V 13  11261.809341  15956.693936 -23220.500554      -.004083                    
P 14  15423.126401  21612.848359  -1930.745795     45.650374                    
V 14   -197.243266   3221.543698  32092.943486       .043615                    
P 15 -15051.464779   5078.879029  21315.204829   -272.810856                    
V 15 -15646.773163 -22060.672999  -5679.843771       .057507                    
P 16  25833.555086   2511.586881  -6256.113128    -71.553437                    
V 16  -7764.337839   2677.311466 -30501.321353      -.038008                    
P 17 -15391.072906 -21771.195814   -740.876703    150.770496                    
V 17   1622.249754  -2380.833793  31573.998401       .023435                    
P 18    697.716900  15824.953632  21581.474349     68.266363                    
V 18 -26820.611604   1713.089533   -775.078489       .024325                    
P 19  14707.029401  -5042.223584  21593.577238    -34.990680                    
V 19  13884.784074  23530.785716  -3665.119363      -.027114                    
P 20  15557.965894 -14094.676429 -16376.878485     56.125094                    
V 20  20755.973103   -334.914128  20224.534133      -.005925                    
P 21  -1082.850347  23419.873397  12185.497000    -60.198053                    
V 21  -9616.519303  12338.994437 -25892.901005      -.026125                    
P 22  13683.580221  13016.983515  18871.502486    172.095299                    
V 22 -23519.301547   3238.237588  14856.822045      -.008137                    
P 23   5883.067219 -15994.585912 -20314.609635    370.805496                    
V 23  15698.658919  20505.483197 -11922.603512      -.014006                    
P 24   4738.211199  19017.795021  18137.709036    287.393705                    
V 24 -11916.885570  19481.903460 -17154.517645       .032658                    
P 26  -7815.507373  13425.174185  20898.536272    -51.996742                    
V 26 -15347.936679 -23278.595001   9395.543177      -.050467                    
P 27 -16420.917677  15967.882244  13992.288154    152.028736                    
V 27   4557.896716 -16109.279487  25110.312078       .034233                    
P 28 -11290.498450 -13397.116750  20521.602713    -16.206280                    
V 28  24803.216869  -2233.415920  12198.950366       .009269                    
P 29   1356.179824  21524.809379 -15433.565136    119.942632                    
V 29 -12621.416879 -15329.377711 -22309.670634       .026596                    
P 30  -6708.586901  15709.012897 -20721.687979    242.718393                    
V 30 -25338.222287   2606.724915  10432.324916       .035166                    
P 31  11387.270835  10064.387359 -21556.383118    -36.520872                    
V 31 -12083.270296  25085.197606   5448.600601       .020923                    
P 32  22820.785172  -7603.981745 -10537.628529     29.238936                    
V 32  14033.829386   2706.202211  27881.474454      -.085334                    
EOF
